{"type":"FeatureCollection","features":[{"type":"Feature","properties":{"pair":"Brooklyn/Queens"},"geometry":{"type":"MultiLineString","coordinates":[[[-73.83354,40.62398],[-73.8335,40.62394],[-73.83357,40.62355],[-73.83362,40.62394],[-73.83354,40.62398]],[[-73.83363,40.62264],[-73.83356,40.6226],[-73.83368,40.62134],[-73.83374,40.62138],[-73.83363,40.62264]],[[-73.83375,40.621],[-73.83364,40.62098],[-73.83402,40.61433],[-73.83408,40.61438],[-73.83375,40.621]],[[-73.8357,40.60576],[-73.83452,40.60721],[-73.83434,40.60789],[-73.83441,40.60717],[-73.8357,40.60576]],[[-73.92405,40.71415],[-73.92218,40.71288],[-73.9215,40.71107],[-73.92069,40.71054],[-73.92181,40.70941],[-73.91176,40.70346],[-73.91282,40.70237],[-73.91062,40.70105],[-73.91173,40.69996],[-73.90421,40.69572],[-73.90572,40.69414],[-73.90135,40.69161],[-73.90182,40.69107],[-73.90036,40.68818],[-73.90108,40.68786],[-73.89649,40.68244],[-73.89583,40.68353],[-73.8942,40.68532],[-73.89257,40.68356],[-73.89017,40.68504],[-73.88961,40.68431],[-73.88811,40.68533],[-73.88456,40.68671],[-73.88383,40.68789],[-73.87955,40.69118],[-73.87405,40.69423],[-73.86888,40.69518],[-73.86835,40.69474],[-73.86862,40.69403],[-73.86654,40.68528],[-73.86597,40.68198],[-73.86406,40.6824],[-73.86323,40.67913],[-73.8623,40.67918],[-73.86034,40.6713],[-73.85757,40.67167],[-73.85562,40.66387],[-73.85836,40.66341],[-73.85758,40.66009],[-73.86028,40.65959],[-73.86309,40.65826],[-73.86268,40.65758],[-73.86322,40.65826],[-73.86033,40.65967],[-73.85769,40.66015],[-73.85848,40.66347],[-73.85575,40.66391],[-73.85768,40.67161],[-73.86044,40.67123],[-73.8624,40.67911],[-73.86333,40.67906],[-73.86415,40.68231],[-73.86608,40.68191],[-73.86874,40.69402],[-73.86848,40.69472],[-73.86894,40.6951],[-73.87399,40.69415],[-73.87947,40.69112],[-73.88373,40.68783],[-73.88448,40.68664],[-73.88805,40.68525],[-73.8896,40.6842],[-73.89017,40.68493],[-73.8926,40.68345],[-73.89417,40.6852],[-73.89649,40.6823],[-73.90121,40.68786],[-73.90049,40.6882],[-73.90195,40.69107],[-73.90148,40.69158],[-73.90585,40.69411],[-73.90434,40.69569],[-73.91186,40.69992],[-73.91076,40.70104],[-73.91296,40.70235],[-73.91189,40.70342],[-73.92193,40.70937],[-73.92083,40.71052],[-73.9216,40.71102],[-73.92228,40.71283],[-73.92405,40.71415]],[[-73.86098,40.65525],[-73.85717,40.6503],[-73.85719,40.65024],[-73.86104,40.65519],[-73.86098,40.65525]]]}},{"type":"Feature","properties":{"pair":"Manhattan/Bronx"},"geometry":{"type":"MultiLineString","coordinates":[[[-73.90659,40.87575],[-73.90769,40.87283],[-73.90893,40.87211],[-73.9085,40.87265],[-73.90779,40.87288],[-73.90671,40.87575],[-73.90709,40.87687],[-73.90953,40.87874],[-73.91145,40.87898],[-73.91202,40.87809],[-73.91481,40.87664],[-73.91585,40.87572],[-73.91489,40.8767],[-73.91211,40.87815],[-73.91153,40.87905],[-73.91033,40.87909],[-73.90946,40.87882],[-73.907,40.87693],[-73.90659,40.87575]],[[-73.92369,40.87898],[-73.92359,40.87899],[-73.92357,40.8789],[-73.92371,40.87891],[-73.92369,40.87898]]]}}]}